KUIPER-00008            
1 63724U 25088A   26022.78043749  .00009252  00000+0  77275-3 0  9997
2 63724  51.8907 296.2458 0007453 307.9423  52.0873 14.99135701 41175
KUIPER-00009            
1 63725U 25088B   26022.79532216  .00008077  00000+0  10863-2 0  9994
2 63725  51.9033 309.5766 0009760 310.9203  49.0914 14.79950003 40988
KUIPER-00010            
1 63726U 25088C   26022.98982349  .00004526  00000+0  62313-3 0  9995
2 63726  51.9006 285.1716 0000279 104.5202 255.5792 14.79877621 40965
KUIPER-00011            
1 63727U 25088D   26022.74537578 -.00000538  00000+0 -41168-4 0  9997
2 63727  51.8998 293.8234 0010761 332.6619  27.3776 14.79957473 40959
KUIPER-00012            
1 63728U 25088E   26022.73618429  .00005482  00000+0  80421-3 0  9997
2 63728  51.9019 278.1741 0008159 340.4240  19.6407 14.76784651 41127
KUIPER-00013            
1 63729U 25088F   26022.79380391 -.00037289  00000+0 -48848-2 0  9996
2 63729  51.9015 311.0414 0003432 240.3869 119.6752 14.79967882 40778
KUIPER-00014            
1 63730U 25088G   26022.79126581  .00004170  00000+0  57346-3 0  9992
2 63730  51.9022 312.0136 0004693 325.0829  34.9825 14.80100701 40576
KUIPER-00015            
1 63731U 25088H   26022.83844443  .00009051  00000+0  11464-2 0  9995
2 63731  51.9004 322.1584 0009043 284.5072  75.4888 14.82354631 40898
